[{"OBJECT_NAME":"CHUANGXIN 1-03 (CX-1-03)","OBJECT_ID":"2011-068A","EPOCH":"2026-03-09T23:48:05.343264","MEAN_MOTION":14.30514213,"ECCENTRICITY":0.00158467,"INCLINATION":98.7066,"RA_OF_ASC_NODE":86.521,"ARG_OF_PERICENTER":50.1728,"MEAN_ANOMALY":9.9604,"EPHEMERIS_TYPE":0,"CLASSIFICATION_TYPE":"U","NORAD_CAT_ID":37930,"ELEMENT_SET_NO":999,"REV_AT_EPOCH":74647,"BSTAR":-1.9220958e-5,"MEAN_MOTION_DOT":-9.5e-7,"MEAN_MOTION_DDOT":0},{"OBJECT_NAME":"CZ-6A DEB","OBJECT_ID":"2024-140LF","EPOCH":"2026-03-08T23:58:41.484864","MEAN_MOTION":14.26108944,"ECCENTRICITY":0.00190655,"INCLINATION":88.9104,"RA_OF_ASC_NODE":279.5607,"ARG_OF_PERICENTER":93.9796,"MEAN_ANOMALY":266.3577,"EPHEMERIS_TYPE":0,"CLASSIFICATION_TYPE":"U","NORAD_CAT_ID":60900,"ELEMENT_SET_NO":999,"REV_AT_EPOCH":8087,"BSTAR":0.00013225368,"MEAN_MOTION_DOT":3.32e-6,"MEAN_MOTION_DDOT":0}]
